GEO-KOMPSAT-2B          
1 45246U 20013B   23278.39459196 -.00000353  00000+0  00000+0 0  9995
2 45246   0.0387 350.4354 0002230 252.3734  41.3410  1.00272983 13388
BEIDOU-3 G2             
1 45344U 20017A   23278.45663910 -.00000150  00000+0  00000+0 0  9991
2 45344   2.0686  17.8181 0003299 183.9684  56.5199  1.00272704 13374
AEHF-6 (USA 298)        
1 45465U 20022B   23278.50703573 -.00000309  00000+0  00000+0 0  9993
2 45465   4.8363 299.5997 0046199   4.9206  29.6702  1.00274784 13137
BEIDOU-3 G3             
1 45807U 20040A   23278.55492726 -.00000363  00000+0  00000+0 0  9993
2 45807   0.5948 350.5778 0007756 316.6715  17.0758  1.00273456 12189
APSTAR 6D               
1 45863U 20045A   23278.57443858 -.00000327  00000+0  00000+0 0  9994
2 45863   0.0441  86.7527 0001876  97.5836 170.4375  1.00267592 11979
KOREASAT 116            
1 45920U 20048A   23278.55049472 -.00000371  00000+0  00000+0 0  9992
2 45920   0.0251 274.3049 0001462 299.1748 114.8569  1.00268854 11754
EXPRESS 103             
1 45985U 20053A   23278.54514509 -.00000290  00000+0  00000+0 0  9996
2 45985   0.0139 247.2785 0000313 350.4059  69.0456  1.00272804 11763
EXPRESS 80              
1 45986U 20053B   23277.74118491 -.00000145  00000+0  00000+0 0  9997
2 45986   0.0247 248.0716 0000211 226.0578 245.8886  1.00272048 11758
BSAT-4B                 
1 46112U 20056A   23278.55492718 -.00000359  00000+0  00000+0 0  9996
2 46112   0.0709 114.4691 0004185  53.2922 155.8378  1.00271921 11506
MEV-2                   
1 46113U 20056B   23278.29721365 -.00000019  00000+0  00000+0 0  9994
2 46113   0.0161 238.6732 0001294 354.5593 246.5146  1.00272057 70667
GALAXY 30 (G-30)        
1 46114U 20056C   23278.55655125  .00000028  00000+0  00000+0 0  9993
2 46114   0.0163 235.1075 0002616 326.2021 248.0336  1.00271287 11402
GAOFEN 13-01            
1 46610U 20071A   23278.55943293 -.00000372  00000+0  00000+0 0  9990
2 46610   0.0618 306.1433 0013430  63.3791 323.9059  1.00271456 11036
TIANTONG-1 2            
1 46916U 20082A   23278.54841042 -.00000367  00000+0  00000+0 0  9993
2 46916   2.9773 293.2186 0002558 299.1075 103.9899  1.00269941 10776
LUCAS (JDRS-1)          
1 47202U 20089A   23278.60220142 -.00000245  00000+0  00000+0 0  9993
2 47202   0.0358 261.0327 0001832 299.2838 121.2822  1.00273182 10530
SXM-7                   
1 47240U 20096A   23278.46873170 -.00000214  00000+0  00000+0 0  9998
2 47240   0.0404   8.0812 0000903 130.0942 319.2265  1.00271722 10435
CMS-01                  
1 47256U 20099A   23278.56368740 -.00000174  00000+0  00000+0 0  9996
2 47256   0.0852  91.5842 0007510 161.9977  46.3446  1.00272048 10319
TURKSAT 5A              
1 47306U 21001A   23278.51851219  .00000145  00000+0  00000+0 0  9996
2 47306   0.0247 109.4842 0000299 157.6394 324.4026  1.00272638 10098
TIANTONG-1 3            
1 47321U 21003A   23278.56368740 -.00000166  00000+0  00000+0 0  9996
2 47321   3.4073 309.4791 0004189 266.6277  82.3259  1.00273321 10073
TJS-6                   
1 47613U 21010A   23278.59971619  .00000033  00000+0  00000+0 0  9998
2 47613   0.2887 278.9348 0001981 287.6357 201.7421  1.00273110  9939
SBIRS GEO-5 (USA 315)   
1 48618U 21042A   23277.31299372  .00000106  00000+0  00000+0 0  9998
2 48618   6.5624 325.4668 0002370 240.4201 300.4279  1.00272912  8862
FENGYUN 4B              
1 48808U 21047A   23278.58660378 -.00000331  00000+0  00000+0 0  9993
2 48808   0.2182 282.3680 0002284 132.4552 303.5884  1.00269668  8704
SXM-8                   
1 48838U 21049A   23278.46873154 -.00000214  00000+0  00000+0 0  9993
2 48838   0.0186 240.6336 0003072 133.5977  83.1906  1.00271659  8713
TIANLIAN 1-05           
1 49011U 21063A   23278.51564043  .00000098  00000+0  00000+0 0  9992
2 49011   0.9644 279.2849 0003938 274.0888  22.9925  1.00272291  8192
STAR ONE D2             
1 49055U 21069A   23278.47247427 -.00000274  00000+0  00000+0 0  9992
2 49055   0.0096 197.9852 0002794 345.2103 290.8067  1.00271157  8050
EUTELSAT QUANTUM        
1 49056U 21069B   23278.52181904  .00000117  00000+0  00000+0 0  9991
2 49056   0.0149  81.6509 0002258 130.9105  36.9438  1.00270363  8042
CHINASAT 2E (ZX 2E)     
1 49062U 21071A   23278.60993488 -.00000301  00000+0  00000+0 0  9994
2 49062   0.0452  38.9359 0002758 252.8647  39.8591  1.00271302  8163
TJS-7                   
1 49115U 21077A   23278.57202071 -.00000133  00000+0  00000+0 0  9999
2 49115   0.4927  94.1838 0002915 249.0316 137.2559  1.00272858  7922
CHINASAT 9B             
1 49125U 21080A   23278.61111883 -.00000322  00000+0  00000+0 0  9999
2 49125   0.0223 120.5098 0003774  73.7258 141.2090  1.00272256  7759
SHIJIAN-21 (SJ-21)      
1 49330U 21094A   23278.45072155  .00000077  00000+0  00000+0 0  9998
2 49330   9.3317  47.0221 0079195  27.7493 151.8868  1.00385439  7370
SES-17                  
1 49332U 21095A   23278.36091325 -.00000281  00000+0  00000+0 0  9999
2 49332   0.0143 176.4878 0001435  25.6644 234.4688  1.00271661  7952
SYRACUSE 4A             
1 49333U 21095B   23278.23481844  .00000126  00000+0  00000+0 0  9992
2 49333   0.0117 199.4315 0001526 348.6303 315.6232  1.00270261  8094
QZS-1R                  
1 49336U 21096A   23278.51988981 -.00000255  00000+0  00000+0 0  9995
2 49336  35.4180  94.4346 0745351 269.8649 331.6229  1.00282422  7124
CHINASAT 1D (ZX 1D)     
1 49505U 21114A   23278.54841042 -.00000346  00000+0  00000+0 0  9994
2 49505   0.2663 270.9622 0002004 313.0496 117.5493  1.00270965  6952
STPSAT-6                
1 49817U 21118A   23278.56422400 -.00000055  00000+0  00000+0 0  9996
2 49817   0.0169 177.4024 0000928  60.6061 227.4579  1.00272180  6687
LDPE-1                  
1 49818U 21118B   23278.56368740 -.00000230  00000+0  00000+0 0  9998
2 49818   1.5681  91.3552 0004937 195.7150  10.7348  1.00638312  6743
EXPRESS AMU-7           
1 50001U 21123A   23277.56113859 -.00000251  00000+0  00000+0 0  9991
2 50001   0.0266 251.7379 0000455 227.1554 241.1271  1.00273613  6654
EXPRESS AMU-3           
1 50002U 21123B   23277.67752891 -.00000331  00000+0  00000+0 0  9998
2 50002   0.0136 252.1709 0000728 298.6378 169.2056  1.00275739  6622
TIANLIAN 2-02           
1 50005U 21124A   23278.59455528 -.00000024  00000+0  00000+0 0  9990
2 50005   1.3373 276.8284 0001611 289.0256 193.1793  1.00272540  6737
TURKSAT 5B              
1 50212U 21126A   23278.52068774  .00000137  00000+0  00000+0 0  9992
2 50212   0.0698 348.2705 0002457 304.2471 310.8741  1.00271877  6411
INMARSAT 6-F1           
1 50319U 21128A   23278.56368740 -.00000181  00000+0  00000+0 0  9992
2 50319   0.0164 154.9232 0001179 116.0724  29.6743  1.00270818  6370
SHIYAN 12 01 (SY-12 01) 
1 50321U 21129A   23278.60064084 -.00000133  00000+0  00000+0 0  9992
2 50321   1.1190  96.0469 0002917 158.6286  59.0348  1.00072895  6618
SHIYAN 12 02 (SY-12 02) 
1 50322U 21129B   23278.59916146 -.00000151  00000+0  00000+0 0  9996
2 50322   1.1183  96.0660 0003391 142.4305  67.5794  1.00457937  6617
TJS-9                   
1 50574U 21135A   23278.57368039 -.00000307  00000+0  00000+0 0  9995
2 50574   0.0993  96.1824 0003444 107.6540 153.9331  1.00272725  6559
USA 324                 
1 51280U 22006A   23255.36624483 -.00000053  00000+0  00000+0 0  9996
2 51280   1.1011  92.3395 0000790 170.2202  24.8459  1.00397066  6014
USA 325                 
1 51281U 22006B   23255.37847407  .00000082  00000+0  00000+0 0  9992
2 51281   0.0899  86.8893 0000767 164.1134  61.2593  1.00346896  6017
GOES 18                 
1 51850U 22021A   23278.54883844  .00000088  00000+0  00000+0 0  9996
2 51850   0.0309  13.4731 0000432 208.9403 212.1363  1.00271930  5890
CHINASAT 6D             
1 52255U 22038A   23277.61663367 -.00000363  00000+0  00000+0 0  9994
2 52255   0.0287 208.0295 0002491  22.7281 129.2202  1.00267851  5522
NILESAT 301             
1 52817U 22061A   23278.29599532 -.00000067  00000+0  00000+0 0  9992
2 52817   0.0535  15.4625 0002340 192.0139 265.7924  1.00271831  4861
CMS-02 (GSAT 24)        
1 52903U 22067A   23278.56368740 -.00000174  00000+0  00000+0 0  9998
2 52903   0.0168 199.8147 0004815 276.2518 183.8329  1.00270639  4730
MEASAT 3D               
1 52904U 22067B   23278.60435465 -.00000251  00000+0  00000+0 0  9999
2 52904   0.0432 334.5659 0002114 273.7162  74.8055  1.00270018  4767
SES-22                  
1 52933U 22071A   23278.54964718  .00000079  00000+0  00000+0 0  9994
2 52933   0.0167 164.6929 0001220  46.2178 225.9218  1.00272871  4650
WFOV (USA 332)          
1 52940U 22073A   23278.55934102 -.00000371  00000+0  00000+0 0  9995
2 52940   1.1604  91.7495 0004485  90.6805 152.1961  1.00271987  4484
TIANLIAN 2-03           
1 53100U 22078A   23277.71148441  .00000061  00000+0  00000+0 0  9994
2 53100   1.8922 280.4591 0001715 265.1997  94.2018  1.00270191  4666
SBIRS GEO-6 (USA 336)   
1 53355U 22092A   23278.54303458  .00000106  00000+0  00000+0 0  9995
2 53355   5.1079 310.9259 0011577 189.4495 284.0743  1.00272902  4358
EUTELSAT KONNECT VHTS   
1 53765U 22110A   23278.36952944  .00000008  00000+0  00000+0 0  9992
2 53765   0.0538  92.9635 0002938  96.2996 320.2453  1.00270940  3916
CHINASAT 1E (ZX 1E)     
1 53813U 22112A   23278.56368740 -.00000158  00000+0  00000+0 0  9992
2 53813   0.5350 277.4646 0002714 288.6091  92.1996  1.00270200  3976
SES-20                  
1 53960U 22123A   23278.56941191 -.00000110  00000+0  00000+0 0  9992
2 53960   0.0197 156.4592 0001436 316.4136   3.0140  1.00270746  3662
SES-21                  
1 53961U 22123B   23278.55306887  .00000060  00000+0  00000+0 0  9992
2 53961   0.0151 116.9346 0001062  68.3733 256.7917  1.00270408  3666
GALAXY 33 (G-33)        
1 54026U 22128A   23278.55135346  .00000070  00000+0  00000+0 0  9991
2 54026   0.0124 182.9041 0001944  16.8975 239.6356  1.00270657  3864
